{"type": "FeatureCollection", "features": [ {"type": "Feature", "properties": {"norad_id": 43437, "name": "SENTINEL-3B", "group": "resource", "lat": -15.371380064774684, "lon": 68.18117686735413, "alt_km": 807.597999501706, "timestamp": "2025-12-26T19:22:38.551761+00:00", "meta": {"OBJECT_NAME": "SENTINEL-3B", "OBJECT_ID": "2018-039A", "EPOCH": "2025-12-26T14:24:02.704320", "MEAN_MOTION": 14.26739349, "ECCENTRICITY": 0.00015746, "INCLINATION": 98.6249, "RA_OF_ASC_NODE": 65.5855, "ARG_OF_PERICENTER": 88.1106, "MEAN_ANOMALY": 272.0255, "EPHEMERIS_TYPE": 0, "CLASSIFICATION_TYPE": "U", "NORAD_CAT_ID": 43437, "ELEMENT_SET_NO": 999, "REV_AT_EPOCH": 39951, "BSTAR": 7.7966348e-05, "MEAN_MOTION_DOT": 1.45e-06, "MEAN_MOTION_DDOT": 0}, "tle": {"line1": "1 43437U 18039A   25360.60003130  .00000145  00000+0  77966-4 0  9999", "line2": "2 43437  98.6249  65.5855 0001574  88.1106 272.0255 14.26739349399514"}}, "geometry": {"type": "Point", "coordinates": [68.18117686735413, -15.371380064774684]}}, {"type": "Feature", "properties": {"norad_id": 43461, "name": "GAOFEN-5 01", "group": "resource", "lat": -55.982229138925895, "lon": 131.32207890521548, "alt_km": 698.4399099119819, "timestamp": "2025-12-26T19:22:38.551772+00:00", "meta": {"OBJECT_NAME": "GAOFEN-5 01", "OBJECT_ID": "2018-043A", "EPOCH": "2025-12-26T15:00:26.684640", "MEAN_MOTION": 14.60424553, "ECCENTRICITY": 5.866e-05, "INCLINATION": 98.4347, "RA_OF_ASC_NODE": 323.8365, "ARG_OF_PERICENTER": 227.6847, "MEAN_ANOMALY": 132.4303, "EPHEMERIS_TYPE": 0, "CLASSIFICATION_TYPE": "U", "NORAD_CAT_ID": 43461, "ELEMENT_SET_NO": 999, "REV_AT_EPOCH": 40650, "BSTAR": 0.00011541264, "MEAN_MOTION_DOT": 5.1e-06, "MEAN_MOTION_DDOT": 0}, "tle": {"line1": "1 43461U 18043A   25360.62530885  .00000510  00000+0  11541-3 0  9997", "line2": "2 43461  98.4347 323.8365 0000586 227.6847 132.4303 14.60424553406505"}}, "geometry": {"type": "Point", "coordinates": [131.32207890521548, -55.982229138925895]}}, {"type": "Feature", "properties": {"norad_id": 43484, "name": "GAOFEN-6", "group": "resource", "lat": -31.016064900160632, "lon": 69.3285155379272, "alt_km": 640.8392523626862, "timestamp": "2025-12-26T19:22:38.551782+00:00", "meta": {"OBJECT_NAME": "GAOFEN-6", "OBJECT_ID": "2018-048A", "EPOCH": "2025-12-26T14:38:22.819776", "MEAN_MOTION": 14.76591406, "ECCENTRICITY": 0.00124825, "INCLINATION": 97.8008, "RA_OF_ASC_NODE": 64.4099, "ARG_OF_PERICENTER": 22.1846, "MEAN_ANOMALY": 337.9902, "EPHEMERIS_TYPE": 0, "CLASSIFICATION_TYPE": "U", "NORAD_CAT_ID": 43484, "ELEMENT_SET_NO": 999, "REV_AT_EPOCH": 40792, "BSTAR": 0.00017870556, "MEAN_MOTION_DOT": 1.199e-05, "MEAN_MOTION_DDOT": 0}, "tle": {"line1": "1 43484U 18048A   25360.60998634  .00001199  00000+0  17871-3 0  9991", "line2": "2 43484  97.8008  64.4099 0012482  22.1846 337.9902 14.76591406407927"}}, "geometry": {"type": "Point", "coordinates": [69.3285155379272, -31.016064900160632]}}, {"type": "Feature", "properties": {"norad_id": 43585, "name": "GAOFEN-11 01", "group": "resource", "lat": -37.64687424912921, "lon": -121.93404834927432, "alt_km": 421.8485088506586, "timestamp": "2025-12-26T19:22:38.551792+00:00", "meta": {"OBJECT_NAME": "GAOFEN-11 01", "OBJECT_ID": "2018-063A", "EPOCH": "2025-12-26T15:20:24.312192", "MEAN_MOTION": 15.49619121, "ECCENTRICITY": 0.00039522, "INCLINATION": 97.1539, "RA_OF_ASC_NODE": 63.4592, "ARG_OF_PERICENTER": 241.5377, "MEAN_ANOMALY": 118.5477, "EPHEMERIS_TYPE": 0, "CLASSIFICATION_TYPE": "U", "NORAD_CAT_ID": 43585, "ELEMENT_SET_NO": 999, "REV_AT_EPOCH": 41357, "BSTAR": 0.00035132199, "MEAN_MOTION_DOT": 0.00019361, "MEAN_MOTION_DDOT": 0}, "tle": {"line1": "1 43585U 18063A   25360.63917028  .00019361  00000+0  35132-3 0  9991", "line2": "2 43585  97.1539  63.4592 0003952 241.5377 118.5477 15.49619121413570"}}, "geometry": {"type": "Point", "coordinates": [-121.93404834927432, -37.64687424912921]}}, {"type": "Feature", "properties": {"norad_id": 43613, "name": "ICESAT-2", "group": "resource", "lat": -39.169174971634945, "lon": -113.8319244380686, "alt_km": 489.45432421902296, "timestamp": "2025-12-26T19:22:38.551804+00:00", "meta": {"OBJECT_NAME": "ICESAT-2", "OBJECT_ID": "2018-070A", "EPOCH": "2025-12-26T14:50:02.998464", "MEAN_MOTION": 15.28274271, "ECCENTRICITY": 0.00032114, "INCLINATION": 92.0036, "RA_OF_ASC_NODE": 244.4827, "ARG_OF_PERICENTER": 108.7105, "MEAN_ANOMALY": 251.4493, "EPHEMERIS_TYPE": 0, "CLASSIFICATION_TYPE": "U", "NORAD_CAT_ID": 43613, "ELEMENT_SET_NO": 999, "REV_AT_EPOCH": 40610, "BSTAR": 0.00047667048, "MEAN_MOTION_DOT": 0.00013131, "MEAN_MOTION_DDOT": 0}, "tle": {"line1": "1 43613U 18070A   25360.61809026  .00013131  00000+0  47667-3 0  9992", "line2": "2 43613  92.0036 244.4827 0003211 108.7105 251.4493 15.28274271406107"}}, "geometry": {"type": "Point", "coordinates": [-113.8319244380686, -39.169174971634945]}}, {"type": "Feature", "properties": {"norad_id": 43719, "name": "HYSIS", "group": "resource", "lat": 68.55582475350481, "lon": -95.2837037669944, "alt_km": 626.5249059609305, "timestamp": "2025-12-26T19:22:38.551814+00:00", "meta": {"OBJECT_NAME": "HYSIS", "OBJECT_ID": "2018-096A", "EPOCH": "2025-12-26T15:38:02.433120", "MEAN_MOTION": 14.78682033, "ECCENTRICITY": 7.734e-05, "INCLINATION": 98.0075, "RA_OF_ASC_NODE": 63.56, "ARG_OF_PERICENTER": 53.7106, "MEAN_ANOMALY": 306.4176, "EPHEMERIS_TYPE": 0, "CLASSIFICATION_TYPE": "U", "NORAD_CAT_ID": 43719, "ELEMENT_SET_NO": 999, "REV_AT_EPOCH": 38192, "BSTAR": 0.0001733335, "MEAN_MOTION_DOT": 1.219e-05, "MEAN_MOTION_DDOT": 0}, "tle": {"line1": "1 43719U 18096A   25360.65141705  .00001219  00000+0  17333-3 0  9995", "line2": "2 43719  98.0075  63.5600 0000773  53.7106 306.4176 14.78682033381926"}}, "geometry": {"type": "Point", "coordinates": [-95.2837037669944, 68.55582475350481]}}, {"type": "Feature", "properties": {"norad_id": 43783, "name": "KAZSTSAT", "group": "resource", "lat": -47.22191763375659, "lon": 43.516186286720306, "alt_km": 572.4959671434262, "timestamp": "2025-12-26T19:22:38.551824+00:00", "meta": {"OBJECT_NAME": "KAZSTSAT", "OBJECT_ID": "2018-099AB", "EPOCH": "2025-12-26T14:47:05.535456", "MEAN_MOTION": 14.99374836, "ECCENTRICITY": 0.00064174, "INCLINATION": 97.451, "RA_OF_ASC_NODE": 35.2021, "ARG_OF_PERICENTER": 268.436, "MEAN_ANOMALY": 91.6129, "EPHEMERIS_TYPE": 0, "CLASSIFICATION_TYPE": "U", "NORAD_CAT_ID": 43783, "ELEMENT_SET_NO": 999, "REV_AT_EPOCH": 38544, "BSTAR": 7.1083989e-05, "MEAN_MOTION_DOT": 8.14e-06, "MEAN_MOTION_DDOT": 0}, "tle": {"line1": "1 43783U 18099AB  25360.61603629  .00000814  00000+0  71084-4 0  9997", "line2": "2 43783  97.4510  35.2021 0006417 268.4360  91.6129 14.99374836385449"}}, "geometry": {"type": "Point", "coordinates": [43.516186286720306, -47.22191763375659]}}, {"type": "Feature", "properties": {"norad_id": 43831, "name": "SAUDISAT 5A", "group": "resource", "lat": -76.49206338436336, "lon": -151.69030144235614, "alt_km": 500.8211740194156, "timestamp": "2025-12-26T19:22:38.551835+00:00", "meta": {"OBJECT_NAME": "SAUDISAT 5A", "OBJECT_ID": "2018-102A", "EPOCH": "2025-12-26T15:05:57.660576", "MEAN_MOTION": 15.25827685, "ECCENTRICITY": 0.00109467, "INCLINATION": 97.333, "RA_OF_ASC_NODE": 60.5517, "ARG_OF_PERICENTER": 32.7911, "MEAN_ANOMALY": 327.4004, "EPHEMERIS_TYPE": 0, "CLASSIFICATION_TYPE": "U", "NORAD_CAT_ID": 43831, "ELEMENT_SET_NO": 999, "REV_AT_EPOCH": 38934, "BSTAR": 0.00025591802, "MEAN_MOTION_DOT": 6.485e-05, "MEAN_MOTION_DDOT": 0}, "tle": {"line1": "1 43831U 18102A   25360.62913959  .00006485  00000+0  25592-3 0  9999", "line2": "2 43831  97.3330  60.5517 0010946  32.7911 327.4004 15.25827685389349"}}, "geometry": {"type": "Point", "coordinates": [-151.69030144235614, -76.49206338436336]}}, {"type": "Feature", "properties": {"norad_id": 43833, "name": "SAUDISAT 5B", "group": "resource", "lat": -31.35449868074611, "lon": 67.99672756317858, "alt_km": 490.07988219005165, "timestamp": "2025-12-26T19:22:38.551845+00:00", "meta": {"OBJECT_NAME": "SAUDISAT 5B", "OBJECT_ID": "2018-102C", "EPOCH": "2025-12-26T14:47:41.385408", "MEAN_MOTION": 15.2617251, "ECCENTRICITY": 0.00116926, "INCLINATION": 97.3425, "RA_OF_ASC_NODE": 63.3028, "ARG_OF_PERICENTER": 34.8805, "MEAN_ANOMALY": 325.3197, "EPHEMERIS_TYPE": 0, "CLASSIFICATION_TYPE": "U", "NORAD_CAT_ID": 43833, "ELEMENT_SET_NO": 999, "REV_AT_EPOCH": 38945, "BSTAR": 0.0002454683, "MEAN_MOTION_DOT": 6.284e-05, "MEAN_MOTION_DDOT": 0}, "tle": {"line1": "1 43833U 18102C   25360.61645122  .00006284  00000+0  24547-3 0  9990", "line2": "2 43833  97.3425  63.3028 0011692  34.8805 325.3197 15.26172510389451"}}, "geometry": {"type": "Point", "coordinates": [67.99672756317858, -31.35449868074611]}}, {"type": "Feature", "properties": {"norad_id": 44622, "name": "GAOFEN-10R", "group": "resource", "lat": -63.10961233836263, "lon": 112.20753713929169, "alt_km": 629.6673014562866, "timestamp": "2025-12-26T19:22:38.551856+00:00", "meta": {"OBJECT_NAME": "GAOFEN-10R", "OBJECT_ID": "2019-066A", "EPOCH": "2025-12-26T15:02:24.230112", "MEAN_MOTION": 14.82839065, "ECCENTRICITY": 0.00068784, "INCLINATION": 98.0296, "RA_OF_ASC_NODE": 308.1886, "ARG_OF_PERICENTER": 0.6056, "MEAN_ANOMALY": 359.5165, "EPHEMERIS_TYPE": 0, "CLASSIFICATION_TYPE": "U", "NORAD_CAT_ID": 44622, "ELEMENT_SET_NO": 999, "REV_AT_EPOCH": 33680, "BSTAR": 0.00022964027, "MEAN_MOTION_DOT": 1.805e-05, "MEAN_MOTION_DDOT": 0}, "tle": {"line1": "1 44622U 19066A   25360.62666933  .00001805  00000+0  22964-3 0  9996", "line2": "2 44622  98.0296 308.1886 0006878   0.6056 359.5165 14.82839065336804"}}, "geometry": {"type": "Point", "coordinates": [112.20753713929169, -63.10961233836263]}}]}